{"type": "FeatureCollection", "features": [ {"type": "Feature", "properties": {"norad_id": 35033, "name": "COSMOS 2251 DEB", "group": "cosmos-2251-debris", "lat": 24.902446831861734, "lon": 6.408439019691791, "alt_km": 730.3097992729372, "timestamp": "2025-12-03T10:52:57.852264+00:00", "meta": {"OBJECT_NAME": "COSMOS 2251 DEB", "OBJECT_ID": "1993-036AGW", "EPOCH": "2025-12-01T21:46:02.380800", "MEAN_MOTION": 14.50844438, "ECCENTRICITY": 0.00143855, "INCLINATION": 74.0263, "RA_OF_ASC_NODE": 196.9584, "ARG_OF_PERICENTER": 303.7279, "MEAN_ANOMALY": 56.251, "EPHEMERIS_TYPE": 0, "CLASSIFICATION_TYPE": "U", "NORAD_CAT_ID": 35033, "ELEMENT_SET_NO": 999, "REV_AT_EPOCH": 65770, "BSTAR": 0.00069994659, "MEAN_MOTION_DOT": 2.736e-05, "MEAN_MOTION_DDOT": 0}, "tle": {"line1": "1 35033U 93036AGW 25335.90697200  .00002736  00000+0  69995-3 0  9994", "line2": "2 35033  74.0263 196.9584 0014385 303.7279  56.2510 14.50844438657707"}}, "geometry": {"type": "Point", "coordinates": [6.408439019691791, 24.902446831861734]}}, {"type": "Feature", "properties": {"norad_id": 35037, "name": "COSMOS 2251 DEB", "group": "cosmos-2251-debris", "lat": -32.329738284662874, "lon": 145.6784618129132, "alt_km": 291.48004286012656, "timestamp": "2025-12-03T10:52:57.852275+00:00", "meta": {"OBJECT_NAME": "COSMOS 2251 DEB", "OBJECT_ID": "1993-036AHA", "EPOCH": "2025-11-07T11:23:37.197312", "MEAN_MOTION": 15.53719687, "ECCENTRICITY": 0.0010282, "INCLINATION": 73.9601, "RA_OF_ASC_NODE": 214.7185, "ARG_OF_PERICENTER": 129.4999, "MEAN_ANOMALY": 230.7127, "EPHEMERIS_TYPE": 0, "CLASSIFICATION_TYPE": "U", "NORAD_CAT_ID": 35037, "ELEMENT_SET_NO": 999, "REV_AT_EPOCH": 66656, "BSTAR": 0.0068953187, "MEAN_MOTION_DOT": 0.00469331, "MEAN_MOTION_DDOT": 0}, "tle": {"line1": "1 35037U 93036AHA 25311.47473608  .00469331  00000+0  68953-2 0  9998", "line2": "2 35037  73.9601 214.7185 0010282 129.4999 230.7127 15.53719687666563"}}, "geometry": {"type": "Point", "coordinates": [145.6784618129132, -32.329738284662874]}}, {"type": "Feature", "properties": {"norad_id": 35038, "name": "COSMOS 2251 DEB", "group": "cosmos-2251-debris", "lat": -71.6379833146645, "lon": -61.60028106616124, "alt_km": 881.9110438944854, "timestamp": "2025-12-03T10:52:57.852286+00:00", "meta": {"OBJECT_NAME": "COSMOS 2251 DEB", "OBJECT_ID": "1993-036AHB", "EPOCH": "2025-12-02T22:25:29.053056", "MEAN_MOTION": 14.25054791, "ECCENTRICITY": 0.0113624, "INCLINATION": 74.1068, "RA_OF_ASC_NODE": 60.197, "ARG_OF_PERICENTER": 46.834, "MEAN_ANOMALY": 72.6585, "EPHEMERIS_TYPE": 0, "CLASSIFICATION_TYPE": "U", "NORAD_CAT_ID": 35038, "ELEMENT_SET_NO": 999, "REV_AT_EPOCH": 85429, "BSTAR": 0.0012453, "MEAN_MOTION_DOT": 3.098e-05, "MEAN_MOTION_DDOT": 0}, "tle": {"line1": "1 35038U 93036AHB 25336.93436404  .00003098  00000+0  12453-2 0  9998", "line2": "2 35038  74.1068  60.1970 0113624  46.8340  72.6585 14.25054791854291"}}, "geometry": {"type": "Point", "coordinates": [-61.60028106616124, -71.6379833146645]}}, {"type": "Feature", "properties": {"norad_id": 35043, "name": "COSMOS 2251 DEB", "group": "cosmos-2251-debris", "lat": -1.2396939199743804, "lon": -115.77215982244705, "alt_km": 647.6513163632062, "timestamp": "2025-12-03T10:52:57.852298+00:00", "meta": {"OBJECT_NAME": "COSMOS 2251 DEB", "OBJECT_ID": "1993-036AHG", "EPOCH": "2025-12-01T12:30:27.515520", "MEAN_MOTION": 14.75939938, "ECCENTRICITY": 0.00983873, "INCLINATION": 73.9533, "RA_OF_ASC_NODE": 67.6713, "ARG_OF_PERICENTER": 278.6033, "MEAN_ANOMALY": 80.4003, "EPHEMERIS_TYPE": 0, "CLASSIFICATION_TYPE": "U", "NORAD_CAT_ID": 35043, "ELEMENT_SET_NO": 999, "REV_AT_EPOCH": 67253, "BSTAR": 0.0052130245, "MEAN_MOTION_DOT": 0.00038979, "MEAN_MOTION_DDOT": 0}, "tle": {"line1": "1 35043U 93036AHG 25335.52115180  .00038979  00000+0  52130-2 0  9995", "line2": "2 35043  73.9533  67.6713 0098387 278.6033  80.4003 14.75939938672537"}}, "geometry": {"type": "Point", "coordinates": [-115.77215982244705, -1.2396939199743804]}}, {"type": "Feature", "properties": {"norad_id": 35045, "name": "COSMOS 2251 DEB", "group": "cosmos-2251-debris", "lat": 33.43567839048906, "lon": 80.2288837921256, "alt_km": 870.7604156479001, "timestamp": "2025-12-03T10:52:57.852309+00:00", "meta": {"OBJECT_NAME": "COSMOS 2251 DEB", "OBJECT_ID": "1993-036AHJ", "EPOCH": "2025-12-03T00:25:53.959296", "MEAN_MOTION": 14.00351861, "ECCENTRICITY": 0.0183181, "INCLINATION": 73.7196, "RA_OF_ASC_NODE": 69.8724, "ARG_OF_PERICENTER": 313.2553, "MEAN_ANOMALY": 45.3412, "EPHEMERIS_TYPE": 0, "CLASSIFICATION_TYPE": "U", "NORAD_CAT_ID": 35045, "ELEMENT_SET_NO": 999, "REV_AT_EPOCH": 84507, "BSTAR": 0.00080749, "MEAN_MOTION_DOT": 1.355e-05, "MEAN_MOTION_DDOT": 0}, "tle": {"line1": "1 35045U 93036AHJ 25337.01798564  .00001355  00000+0  80749-3 0  9992", "line2": "2 35045  73.7196  69.8724 0183181 313.2553  45.3412 14.00351861845074"}}, "geometry": {"type": "Point", "coordinates": [80.2288837921256, 33.43567839048906]}}, {"type": "Feature", "properties": {"norad_id": 35060, "name": "COSMOS 2251 DEB", "group": "cosmos-2251-debris", "lat": 3.6167839658258414, "lon": -97.4314024480591, "alt_km": 743.1273700104493, "timestamp": "2025-12-03T10:52:57.852319+00:00", "meta": {"OBJECT_NAME": "COSMOS 2251 DEB", "OBJECT_ID": "1993-036AHP", "EPOCH": "2025-11-28T02:37:07.839264", "MEAN_MOTION": 14.41547968, "ECCENTRICITY": 0.00179641, "INCLINATION": 74.0363, "RA_OF_ASC_NODE": 271.4275, "ARG_OF_PERICENTER": 359.5881, "MEAN_ANOMALY": 0.5257, "EPHEMERIS_TYPE": 0, "CLASSIFICATION_TYPE": "U", "NORAD_CAT_ID": 35060, "ELEMENT_SET_NO": 999, "REV_AT_EPOCH": 87031, "BSTAR": 0.0004076845, "MEAN_MOTION_DOT": 1.301e-05, "MEAN_MOTION_DDOT": 0}, "tle": {"line1": "1 35060U 93036AHP 25332.10911851  .00001301  00000+0  40768-3 0  9998", "line2": "2 35060  74.0363 271.4275 0017964 359.5881   0.5257 14.41547968870310"}}, "geometry": {"type": "Point", "coordinates": [-97.4314024480591, 3.6167839658258414]}}, {"type": "Feature", "properties": {"norad_id": 35061, "name": "COSMOS 2251 DEB", "group": "cosmos-2251-debris", "lat": 73.59329102906102, "lon": 67.34144020491964, "alt_km": 634.8189015292764, "timestamp": "2025-12-03T10:52:57.852330+00:00", "meta": {"OBJECT_NAME": "COSMOS 2251 DEB", "OBJECT_ID": "1993-036AHQ", "EPOCH": "2025-11-30T23:33:59.477760", "MEAN_MOTION": 14.67665765, "ECCENTRICITY": 0.00387935, "INCLINATION": 74.045, "RA_OF_ASC_NODE": 328.4273, "ARG_OF_PERICENTER": 82.9269, "MEAN_ANOMALY": 277.631, "EPHEMERIS_TYPE": 0, "CLASSIFICATION_TYPE": "U", "NORAD_CAT_ID": 35061, "ELEMENT_SET_NO": 999, "REV_AT_EPOCH": 88402, "BSTAR": 0.00075389945, "MEAN_MOTION_DOT": 4.308e-05, "MEAN_MOTION_DDOT": 0}, "tle": {"line1": "1 35061U 93036AHQ 25334.98193840  .00004308  00000+0  75390-3 0  9996", "line2": "2 35061  74.0450 328.4273 0038793  82.9269 277.6310 14.67665765884023"}}, "geometry": {"type": "Point", "coordinates": [67.34144020491964, 73.59329102906102]}}, {"type": "Feature", "properties": {"norad_id": 35062, "name": "COSMOS 2251 DEB", "group": "cosmos-2251-debris", "lat": -29.63680015940622, "lon": -60.75930679913668, "alt_km": 834.0408991789163, "timestamp": "2025-12-03T10:52:57.852341+00:00", "meta": {"OBJECT_NAME": "COSMOS 2251 DEB", "OBJECT_ID": "1993-036AHR", "EPOCH": "2025-12-01T08:58:12.976320", "MEAN_MOTION": 14.22770227, "ECCENTRICITY": 0.01291712, "INCLINATION": 74.0782, "RA_OF_ASC_NODE": 113.6209, "ARG_OF_PERICENTER": 116.5829, "MEAN_ANOMALY": 244.8622, "EPHEMERIS_TYPE": 0, "CLASSIFICATION_TYPE": "U", "NORAD_CAT_ID": 35062, "ELEMENT_SET_NO": 999, "REV_AT_EPOCH": 85337, "BSTAR": 0.0022023834, "MEAN_MOTION_DOT": 5.359e-05, "MEAN_MOTION_DDOT": 0}, "tle": {"line1": "1 35062U 93036AHR 25335.37376130  .00005359  00000+0  22024-2 0  9998", "line2": "2 35062  74.0782 113.6209 0129171 116.5829 244.8622 14.22770227853379"}}, "geometry": {"type": "Point", "coordinates": [-60.75930679913668, -29.63680015940622]}}, {"type": "Feature", "properties": {"norad_id": 35065, "name": "COSMOS 2251 DEB", "group": "cosmos-2251-debris", "lat": -32.27584411346896, "lon": 42.09928227401146, "alt_km": 753.2129015779428, "timestamp": "2025-12-03T10:52:57.852353+00:00", "meta": {"OBJECT_NAME": "COSMOS 2251 DEB", "OBJECT_ID": "1993-036AHU", "EPOCH": "2025-11-28T23:36:19.413792", "MEAN_MOTION": 14.45665304, "ECCENTRICITY": 0.00193805, "INCLINATION": 74.0201, "RA_OF_ASC_NODE": 220.0123, "ARG_OF_PERICENTER": 347.0058, "MEAN_ANOMALY": 13.0597, "EPHEMERIS_TYPE": 0, "CLASSIFICATION_TYPE": "U", "NORAD_CAT_ID": 35065, "ELEMENT_SET_NO": 999, "REV_AT_EPOCH": 68152, "BSTAR": 0.00046954745, "MEAN_MOTION_DOT": 1.638e-05, "MEAN_MOTION_DDOT": 0}, "tle": {"line1": "1 35065U 93036AHU 25332.98355803  .00001638  00000+0  46955-3 0  9995", "line2": "2 35065  74.0201 220.0123 0019380 347.0058  13.0597 14.45665304681528"}}, "geometry": {"type": "Point", "coordinates": [42.09928227401146, -32.27584411346896]}}, {"type": "Feature", "properties": {"norad_id": 35071, "name": "COSMOS 2251 DEB", "group": "cosmos-2251-debris", "lat": -48.688268675321204, "lon": 173.38703465058637, "alt_km": 601.6300463938023, "timestamp": "2025-12-03T10:52:57.852364+00:00", "meta": {"OBJECT_NAME": "COSMOS 2251 DEB", "OBJECT_ID": "1993-036AJA", "EPOCH": "2025-11-29T00:05:19.896000", "MEAN_MOTION": 15.0306331, "ECCENTRICITY": 0.00683354, "INCLINATION": 73.9323, "RA_OF_ASC_NODE": 201.6723, "ARG_OF_PERICENTER": 102.3686, "MEAN_ANOMALY": 258.5162, "EPHEMERIS_TYPE": 0, "CLASSIFICATION_TYPE": "U", "NORAD_CAT_ID": 35071, "ELEMENT_SET_NO": 999, "REV_AT_EPOCH": 67330, "BSTAR": 0.00075428024, "MEAN_MOTION_DOT": 0.00010673, "MEAN_MOTION_DDOT": 0}, "tle": {"line1": "1 35071U 93036AJA 25333.00370250  .00010673  00000+0  75428-3 0  9995", "line2": "2 35071  73.9323 201.6723 0068335 102.3686 258.5162 15.03063310673307"}}, "geometry": {"type": "Point", "coordinates": [173.38703465058637, -48.688268675321204]}}]}